STARLINK-32332          
1 62490U 25003D   26067.99282164  .00034190  00000+0  12452-2 0  9995
2 62490  43.0049 293.0230 0002782 264.0944  95.9590 15.27604214 66540
FLOCK 4G-1              
1 62666U 25009BK  26068.75951132  .00013534  00000+0  50654-3 0  9995
2 62666  97.4059 151.3158 0003180 323.1401  36.9619 15.27421081 63725
